NORAD_CAT_ID,OBJECT_NAME,OBJECT_TYPE,EPOCH,MEAN_MOTION,ECCENTRICITY,INCLINATION,RA_OF_ASC_NODE,ARG_OF_PERICENTER,MEAN_ANOMALY,BSTAR,MEAN_MOTION_DOT,MEAN_MOTION_DDOT,TLE_LINE0,TLE_LINE1,TLE_LINE2,SEMIMAJOR_AXIS,PERIOD,APOGEE,PERIGEE,DECAYED
53546.0,STARLINK-4477,PAYLOAD,2023-04-24 08:02:42,15.0886114,0.0001416,53.2171,88.8765,94.956,265.1593,0.00021386,3.119e-05,0.0,0 STARLINK-4477,1 53546U 22101V   23114.33521972  .00003119  00000-0  21386-3 0  9999,2 53546  53.2171  88.8765 0001416  94.9560 265.1593 15.08861140 37882,6917.816,95.436,540.66,538.701,0.0
53546.0,STARLINK-4477,PAYLOAD,2023-04-25 07:53:30,15.08846013,0.0001263,53.217,84.4156,103.4516,256.6616,8.8685e-05,1.124e-05,0.0,0 STARLINK-4477,1 53546U 22101V   23115.32882702  .00001124  00000-0  88685-4 0  9990,2 53546  53.2170  84.4156 0001263 103.4516 256.6616 15.08846013 38035,6917.862,95.437,540.601,538.853,0.0
53546.0,STARLINK-4477,PAYLOAD,2023-04-26 02:58:09,15.08823044,0.0001295,53.2173,80.8466,121.0166,239.0954,-0.00024976,-4.259e-05,0.0,0 STARLINK-4477,1 53546U 22101V   23116.12372270 -.00004259  00000-0 -24976-3 0  9999,2 53546  53.2173  80.8466 0001295 121.0166 239.0954 15.08823044 38156,6917.932,95.439,540.693,538.901,0.0
53546.0,STARLINK-4477,PAYLOAD,2023-04-26 07:44:19,15.08823381,0.0001163,53.2179,79.9572,106.634,253.478,-0.00020206,-3.501e-05,0.0,0 STARLINK-4477,1 53546U 22101V   23116.32244727 -.00003501  00000-0 -20206-3 0  9997,2 53546  53.2179  79.9572 0001163 106.6340 253.4780 15.08823381 38180,6917.931,95.439,540.601,538.992,0.0
53546.0,STARLINK-4477,PAYLOAD,2023-04-27 05:59:43,15.0883744,0.0001191,53.2189,75.7946,127.8299,232.2802,6.3368e-05,7.21e-06,0.0,0 STARLINK-4477,1 53546U 22101V   23117.24980659  .00000721  00000-0  63368-4 0  9996,2 53546  53.2189  75.7946 0001191 127.8299 232.2802 15.08837440 38326,6917.888,95.438,540.577,538.929,0.0
53546.0,STARLINK-4477,PAYLOAD,2023-04-28 05:50:29,15.08867816,9.3e-05,53.2175,71.3344,114.4614,245.6475,0.00072055,0.00011207,0.0,0 STARLINK-4477,1 53546U 22101V   23118.24339778  .00011207  00000-0  72055-3 0  9990,2 53546  53.2175  71.3344 0000930 114.4614 245.6475 15.08867816 38478,6917.795,95.436,540.304,539.017,0.0
53546.0,STARLINK-4477,PAYLOAD,2023-04-28 13:47:25,15.0885635,0.0001138,53.2173,69.8479,103.1086,257.0033,0.00024413,3.601e-05,0.0,0 STARLINK-4477,1 53546U 22101V   23118.57459938  .00003601  00000-0  24413-3 0  9991,2 53546  53.2173  69.8479 0001138 103.1086 257.0033 15.08856350 38520,6917.83,95.437,540.483,538.908,0.0
53546.0,STARLINK-4477,PAYLOAD,2023-04-29 04:05:53,15.08846886,0.0001129,53.2161,67.1708,103.3379,256.7739,0.00021303,3.105e-05,0.0,0 STARLINK-4477,1 53546U 22101V   23119.17075865  .00003105  00000-0  21303-3 0  9995,2 53546  53.2161  67.1708 0001129 103.3379 256.7739 15.08846886 38612,6917.859,95.437,540.505,538.943,0.0
53546.0,STARLINK-4477,PAYLOAD,2023-04-29 05:41:16,15.08848658,0.0001107,53.2158,66.8731,103.0674,257.0442,0.00036886,5.589e-05,0.0,0 STARLINK-4477,1 53546U 22101V   23119.23699847  .00005589  00000-0  36886-3 0  9994,2 53546  53.2158  66.8731 0001107 103.0674 257.0442 15.08848658 38626,6917.854,95.437,540.485,538.953,0.0
53546.0,STARLINK-4477,PAYLOAD,2023-04-29 19:59:45,15.08841379,0.000123,53.2152,64.1974,98.8431,261.27,0.00044366,6.78e-05,0.0,0 STARLINK-4477,1 53546U 22101V   23119.83316215  .00006780  00000-0  44366-3 0  9991,2 53546  53.2152  64.1974 0001230  98.8431 261.2700 15.08841379 38716,6917.876,95.437,540.592,538.89,0.0
53546.0,STARLINK-4477,PAYLOAD,2023-04-30 02:21:17,15.08844677,0.0001152,53.2166,63.0074,97.2004,262.9119,0.00016187,2.29e-05,0.0,0 STARLINK-4477,1 53546U 22101V   23120.09812074  .00002290  00000-0  16187-3 0  9997,2 53546  53.2166  63.0074 0001152  97.2004 262.9119 15.08844677 38752,6917.866,95.437,540.528,538.934,0.0
53546.0,STARLINK-4477,PAYLOAD,2023-04-30 19:50:32,15.0883613,0.0001258,53.2167,59.7365,84.6661,275.4475,0.00014594,2.035e-05,0.0,0 STARLINK-4477,1 53546U 22101V   23120.82676761  .00002035  00000-0  14594-3 0  9996,2 53546  53.2167  59.7365 0001258  84.6661 275.4475 15.08836130 38865,6917.892,95.438,540.627,538.887,0.0
53546.0,STARLINK-4477,PAYLOAD,2023-05-01 02:12:05,15.08836425,0.0001158,53.2169,58.5472,85.9961,274.1163,0.00011743,1.581e-05,0.0,0 STARLINK-4477,1 53546U 22101V   23121.09172856  .00001581  00000-0  11743-3 0  9990,2 53546  53.2169  58.5472 0001158  85.9961 274.1163 15.08836425 38901,6917.891,95.438,540.557,538.955,0.0
53546.0,STARLINK-4477,PAYLOAD,2023-05-02 05:13:38,15.08856983,0.0001131,53.2174,53.4906,97.6188,262.4932,0.00045538,6.97e-05,0.0,0 STARLINK-4477,1 53546U 22101V   23122.21780132  .00006970  00000-0  45538-3 0  9993,2 53546  53.2174  53.4906 0001131  97.6188 262.4932 15.08856983 39079,6917.828,95.436,540.476,538.911,0.0
53546.0,STARLINK-4477,PAYLOAD,2023-05-02 19:32:06,15.08849411,0.0001538,53.2183,50.8115,102.0723,258.0441,0.00021897,3.2e-05,0.0,0 STARLINK-4477,1 53546U 22101V   23122.81396197  .00003200  00000-0  21897-3 0  9998,2 53546  53.2183  50.8115 0001538 102.0723 258.0441 15.08849411 39163,6917.852,95.437,540.781,538.653,0.0
53546.0,STARLINK-4477,PAYLOAD,2023-05-03 05:04:25,15.08851706,0.000122,53.2179,49.0315,74.7874,285.3253,0.00023548,3.463e-05,0.0,0 STARLINK-4477,1 53546U 22101V   23123.21140061  .00003463  00000-0  23548-3 0  9996,2 53546  53.2179  49.0315 0001220  74.7874 285.3253 15.08851706 39221,6917.845,95.437,540.554,538.866,0.0
53546.0,STARLINK-4477,PAYLOAD,2023-05-03 19:22:53,15.08839601,8.77e-05,53.2176,46.3544,82.4569,277.6523,-8.6136e-05,-1.658e-05,0.0,0 STARLINK-4477,1 53546U 22101V   23123.80756299 -.00001658  00000-0 -86136-4 0  9996,2 53546  53.2176  46.3544 0000877  82.4569 277.6523 15.08839601 39310,6917.882,95.438,540.353,539.14,0.0
53546.0,STARLINK-4477,PAYLOAD,2023-05-04 11:16:44,15.08841985,0.0001183,53.2179,43.3837,83.2227,276.89,0.00015539,2.186e-05,0.0,0 STARLINK-4477,1 53546U 22101V   23124.46996315  .00002186  00000-0  15539-3 0  9997,2 53546  53.2179  43.3837 0001183  83.2227 276.8900 15.08841985 39415,6917.874,95.437,540.558,538.921,0.0
53546.0,STARLINK-4477,PAYLOAD,2023-05-04 19:13:40,15.08838067,0.0001093,53.2175,41.8953,81.66,278.4516,1.8327e-05,4e-08,0.0,0 STARLINK-4477,1 53546U 22101V   23124.80116401  .00000004  00000-0  18327-4 0  9991,2 53546  53.2175  41.8953 0001093  81.6600 278.4516 15.08838067 39463,6917.886,95.438,540.507,538.995,0.0
53546.0,STARLINK-4477,PAYLOAD,2023-05-05 01:35:12,15.08845157,0.0001094,53.2181,40.7089,94.2324,265.8793,0.00014972,2.096e-05,0.0,0 STARLINK-4477,1 53546U 22101V   23125.06612184  .00002096  00000-0  14972-3 0  9993,2 53546  53.2181  40.7089 0001094  94.2324 265.8793 15.08845157 39502,6917.865,95.437,540.486,538.973,0.0
53546.0,STARLINK-4477,PAYLOAD,2023-05-06 01:26:00,15.08839958,8.69e-05,53.2164,36.2483,81.8482,278.2609,9.6258e-05,1.245e-05,0.0,0 STARLINK-4477,1 53546U 22101V   23126.05972684  .00001245  00000-0  96258-4 0  9990,2 53546  53.2164  36.2483 0000869  81.8482 278.2609 15.08839958 39659,6917.881,95.438,540.347,539.144,0.0
53546.0,STARLINK-4477,PAYLOAD,2023-05-06 04:36:46,15.08844376,0.0001053,53.2171,35.6516,80.0131,280.098,0.00015307,2.149e-05,0.0,0 STARLINK-4477,1 53546U 22101V   23126.19220595  .00002149  00000-0  15307-3 0  9991,2 53546  53.2171  35.6516 0001053  80.0131 280.0980 15.08844376 39670,6917.867,95.437,540.46,539.004,0.0
53546.0,STARLINK-4477,PAYLOAD,2023-05-07 01:16:46,15.08853349,9.25e-05,53.2165,31.7855,92.2873,267.8225,0.00033019,4.973e-05,0.0,0 STARLINK-4477,1 53546U 22101V   23127.05332158  .00004973  00000-0  33019-3 0  9993,2 53546  53.2165  31.7855 0000925  92.2873 267.8225 15.08853349 39801,6917.84,95.437,540.344,539.065,0.0
53546.0,STARLINK-4477,PAYLOAD,2023-05-07 21:56:48,15.08833658,0.0001075,53.2171,27.9192,98.2363,261.8751,0.00010125,1.324e-05,0.0,0 STARLINK-4477,1 53546U 22101V   23127.91445288  .00001324  00000-0  10125-3 0  9997,2 53546  53.2171  27.9192 0001075  98.2363 261.8751 15.08833658 39939,6917.9,95.438,540.508,539.021,0.0
53546.0,STARLINK-4477,PAYLOAD,2023-05-07 23:32:11,15.08835323,0.0001068,53.2168,27.6218,92.4751,267.6363,6.6412e-05,7.69e-06,0.0,0 STARLINK-4477,1 53546U 22101V   23127.98069285  .00000769  00000-0  66412-4 0  9996,2 53546  53.2168  27.6218 0001068  92.4751 267.6363 15.08835323 39945,6917.895,95.438,540.499,539.021,0.0
53546.0,STARLINK-4477,PAYLOAD,2023-05-08 21:47:35,15.08858222,0.000112,53.2165,23.4615,73.0312,287.0803,0.00046298,7.092e-05,0.0,0 STARLINK-4477,1 53546U 22101V   23128.90804646  .00007092  00000-0  46298-3 0  9992,2 53546  53.2165  23.4615 0001120  73.0312 287.0803 15.08858222 40089,6917.825,95.436,540.464,538.915,0.0
53546.0,STARLINK-4477,PAYLOAD,2023-05-08 23:22:58,15.08861746,0.000118,53.2163,23.164,74.3977,285.7145,0.00070604,0.00010973,0.0,0 STARLINK-4477,1 53546U 22101V   23128.97428676  .00010973  00000-0  70604-3 0  9994,2 53546  53.2163  23.1640 0001180  74.3977 285.7145 15.08861746 40099,6917.814,95.436,540.495,538.863,0.0
53546.0,STARLINK-4477,PAYLOAD,2023-05-09 23:13:45,15.08846836,0.0001178,53.2163,18.7017,75.294,284.8183,0.00024064,3.545e-05,0.0,0 STARLINK-4477,1 53546U 22101V   23129.96788953  .00003545  00000-0  24064-3 0  9997,2 53546  53.2163  18.7017 0001178  75.2940 284.8183 15.08846836 40246,6917.859,95.437,540.539,538.91,0.0
53546.0,STARLINK-4477,PAYLOAD,2023-05-10 23:04:32,15.08848652,0.0001217,53.2161,14.239,73.8893,286.2233,0.00046875,7.182e-05,0.0,0 STARLINK-4477,1 53546U 22101V   23130.96148979  .00007182  00000-0  46875-3 0  9992,2 53546  53.2161  14.2390 0001217  73.8893 286.2233 15.08848652 40390,6917.854,95.437,540.561,538.877,0.0
53546.0,STARLINK-4477,PAYLOAD,2023-05-11 22:55:20,15.08837155,0.0001168,53.2167,9.7806,77.3679,282.7444,3.0862e-05,2.03e-06,0.0,0 STARLINK-4477,1 53546U 22101V   23131.95509339  .00000203  00000-0  30862-4 0  9990,2 53546  53.2167   9.7806 0001168  77.3679 282.7444 15.08837155 40541,6917.889,95.438,540.562,538.946,0.0
